{
    "links": {
        "self": "http://www.neowsapp.com/rest/v1/neo/3837559?api_key=iIulBulltgU6a56xZRHN4H3l9WmuAYTsLGpBGhQ2"
    },
    "id": "3837559",
    "neo_reference_id": "3837559",
    "name": "(2019 AO)",
    "designation": "2019 AO",
    "nasa_jpl_url": "http://ssd.jpl.nasa.gov/sbdb.cgi?sstr=3837559",
    "absolute_magnitude_h": 25.3,
    "estimated_diameter": {
        "kilometers": {
            "estimated_diameter_min": 0.0231502122,
            "estimated_diameter_max": 0.0517654482
        },
        "meters": {
            "estimated_diameter_min": 23.150212221,
            "estimated_diameter_max": 51.7654482198
        },
        "miles": {
            "estimated_diameter_min": 0.0143848705,
            "estimated_diameter_max": 0.0321655483
        },
        "feet": {
            "estimated_diameter_min": 75.9521422633,
            "estimated_diameter_max": 169.8341531374
        }
    },
    "is_potentially_hazardous_asteroid": false,
    "close_approach_data": [
        {
            "close_approach_date": "2018-12-31",
            "close_approach_date_full": "2018-Dec-31 15:06",
            "epoch_date_close_approach": 1546268760000,
            "relative_velocity": {
                "kilometers_per_second": "9.2072371102",
                "kilometers_per_hour": "33146.053596624",
                "miles_per_hour": "20595.6686917467"
            },
            "miss_distance": {
                "astronomical": "0.0516309117",
                "lunar": "20.0844246513",
                "kilometers": "7723874.416478079",
                "miles": "4799393.0115883302"
            },
            "orbiting_body": "Earth"
        }
    ],
    "orbital_data": {
        "orbit_id": "3",
        "orbit_determination_date": "2019-01-08 06:56:10",
        "first_observation_date": "2019-01-02",
        "last_observation_date": "2019-01-07",
        "data_arc_in_days": 5,
        "observations_used": 18,
        "orbit_uncertainty": "8",
        "minimum_orbit_intersection": ".0491465",
        "jupiter_tisserand_invariant": "4.145",
        "epoch_osculation": "2458486.5",
        "eccentricity": ".38676242971638",
        "semi_major_axis": "1.659435238154092",
        "inclination": "14.18652029341185",
        "ascending_node_longitude": "274.6368544103956",
        "orbital_period": "780.7983538366669",
        "perihelion_distance": "1.017628033488636",
        "perihelion_argument": "200.4792219383106",
        "aphelion_distance": "2.301242442819549",
        "perihelion_time": "2458498.609809780776",
        "mean_anomaly": "354.4165718336141",
        "mean_motion": ".4610665458386807",
        "equinox": "J2000",
        "orbit_class": {
            "orbit_class_type": "AMO",
            "orbit_class_description": "Near-Earth asteroid orbits similar to that of 1221 Amor",
            "orbit_class_range": "1.017 AU < q (perihelion) < 1.3 AU"
        }
    },
    "is_sentry_object": false
}